ALOS-4 (DAICHI-4)       
1 60182U 24123A   24273.89282861  .00005297  00000+0  71576-3 0  9992
2 60182  97.9218   9.0433 0001454 104.7141 255.4231 14.79462937 13420
